{"type": "FeatureCollection", "features": [ {"type": "Feature", "properties": {"norad_id": 66386, "name": "STARLINK-35651", "group": "last-30-days", "lat": -20.05485866225141, "lon": -72.92513633986711, "alt_km": 450.5001700318935, "timestamp": "2025-12-04T13:51:59.225893+00:00", "meta": {"OBJECT_NAME": "STARLINK-35651", "OBJECT_ID": "2025-257G", "EPOCH": "2025-12-04T08:00:01.999872", "MEAN_MOTION": 15.39608042, "ECCENTRICITY": 0.00015475, "INCLINATION": 53.1604, "RA_OF_ASC_NODE": 304.1104, "ARG_OF_PERICENTER": 71.2774, "MEAN_ANOMALY": 348.0163, "EPHEMERIS_TYPE": 0, "CLASSIFICATION_TYPE": "U", "NORAD_CAT_ID": 66386, "ELEMENT_SET_NO": 999, "REV_AT_EPOCH": 514, "BSTAR": -0.00014092989, "MEAN_MOTION_DOT": -6.03e-05, "MEAN_MOTION_DDOT": 0}, "tle": {"line1": "1 66386U 25257G   25338.33335648 -.00006030  00000+0 -14093-3 0  9996", "line2": "2 66386  53.1604 304.1104 0001547  71.2774 348.0163 15.39608042  5141"}}, "geometry": {"type": "Point", "coordinates": [-72.92513633986711, -20.05485866225141]}}, {"type": "Feature", "properties": {"norad_id": 66387, "name": "STARLINK-35661", "group": "last-30-days", "lat": -18.691891247706106, "lon": -71.73804161672709, "alt_km": 450.41702724465176, "timestamp": "2025-12-04T13:51:59.225904+00:00", "meta": {"OBJECT_NAME": "STARLINK-35661", "OBJECT_ID": "2025-257H", "EPOCH": "2025-12-04T08:00:01.999872", "MEAN_MOTION": 15.3950576, "ECCENTRICITY": 9.553e-05, "INCLINATION": 53.1602, "RA_OF_ASC_NODE": 304.1071, "ARG_OF_PERICENTER": 71.993, "MEAN_ANOMALY": 349.1211, "EPHEMERIS_TYPE": 0, "CLASSIFICATION_TYPE": "U", "NORAD_CAT_ID": 66387, "ELEMENT_SET_NO": 999, "REV_AT_EPOCH": 514, "BSTAR": 0.0033623728, "MEAN_MOTION_DOT": 0.00136005, "MEAN_MOTION_DDOT": 0}, "tle": {"line1": "1 66387U 25257H   25338.33335648  .00136005  00000+0  33624-2 0  9991", "line2": "2 66387  53.1602 304.1071 0000955  71.9930 349.1211 15.39505760  5145"}}, "geometry": {"type": "Point", "coordinates": [-71.73804161672709, -18.691891247706106]}}, {"type": "Feature", "properties": {"norad_id": 66388, "name": "STARLINK-35647", "group": "last-30-days", "lat": -0.014261880295248566, "lon": -57.10316603946974, "alt_km": 444.6745311315526, "timestamp": "2025-12-04T13:51:59.225914+00:00", "meta": {"OBJECT_NAME": "STARLINK-35647", "OBJECT_ID": "2025-257J", "EPOCH": "2025-12-04T08:00:01.999872", "MEAN_MOTION": 15.41880944, "ECCENTRICITY": 0.0001693, "INCLINATION": 53.1601, "RA_OF_ASC_NODE": 304.0624, "ARG_OF_PERICENTER": 65.7768, "MEAN_ANOMALY": 17.4054, "EPHEMERIS_TYPE": 0, "CLASSIFICATION_TYPE": "U", "NORAD_CAT_ID": 66388, "ELEMENT_SET_NO": 999, "REV_AT_EPOCH": 514, "BSTAR": -0.057507667, "MEAN_MOTION_DOT": -0.02224442, "MEAN_MOTION_DDOT": 0}, "tle": {"line1": "1 66388U 25257J   25338.33335648 -.02224442  00000+0 -57508-1 0  9995", "line2": "2 66388  53.1601 304.0624 0001693  65.7768  17.4054 15.41880944  5141"}}, "geometry": {"type": "Point", "coordinates": [-57.10316603946974, -0.014261880295248566]}}, {"type": "Feature", "properties": {"norad_id": 66389, "name": "STARLINK-35694", "group": "last-30-days", "lat": 24.71032632118766, "lon": -36.975483565167636, "alt_km": 415.9512134127699, "timestamp": "2025-12-04T13:51:59.225924+00:00", "meta": {"OBJECT_NAME": "STARLINK-35694", "OBJECT_ID": "2025-257K", "EPOCH": "2025-12-03T09:51:45.959040", "MEAN_MOTION": 15.49244836, "ECCENTRICITY": 0.00018355, "INCLINATION": 53.159, "RA_OF_ASC_NODE": 308.4226, "ARG_OF_PERICENTER": 114.7525, "MEAN_ANOMALY": 245.3675, "EPHEMERIS_TYPE": 0, "CLASSIFICATION_TYPE": "U", "NORAD_CAT_ID": 66389, "ELEMENT_SET_NO": 999, "REV_AT_EPOCH": 493, "BSTAR": 0.00034877553, "MEAN_MOTION_DOT": 0.00018953, "MEAN_MOTION_DDOT": 0}, "tle": {"line1": "1 66389U 25257K   25337.41094860  .00018953  00000+0  34878-3 0  9993", "line2": "2 66389  53.1590 308.4226 0001835 114.7525 245.3675 15.49244836  4938"}}, "geometry": {"type": "Point", "coordinates": [-36.975483565167636, 24.71032632118766]}}, {"type": "Feature", "properties": {"norad_id": 66390, "name": "STARLINK-35665", "group": "last-30-days", "lat": 47.12300009936032, "lon": -3.3807461570698822, "alt_km": 411.13714710282056, "timestamp": "2025-12-04T13:51:59.225934+00:00", "meta": {"OBJECT_NAME": "STARLINK-35665", "OBJECT_ID": "2025-257L", "EPOCH": "2025-12-04T07:23:20.722272", "MEAN_MOTION": 15.4936287, "ECCENTRICITY": 0.00015252, "INCLINATION": 53.1593, "RA_OF_ASC_NODE": 304.0612, "ARG_OF_PERICENTER": 92.4289, "MEAN_ANOMALY": 267.6894, "EPHEMERIS_TYPE": 0, "CLASSIFICATION_TYPE": "U", "NORAD_CAT_ID": 66390, "ELEMENT_SET_NO": 999, "REV_AT_EPOCH": 517, "BSTAR": 0.0025676262, "MEAN_MOTION_DOT": 0.00145314, "MEAN_MOTION_DDOT": 0}, "tle": {"line1": "1 66390U 25257L   25338.30787873  .00145314  00000+0  25676-2 0  9994", "line2": "2 66390  53.1593 304.0612 0001525  92.4289 267.6894 15.49362870  5175"}}, "geometry": {"type": "Point", "coordinates": [-3.3807461570698822, 47.12300009936032]}}, {"type": "Feature", "properties": {"norad_id": 66391, "name": "STARLINK-35656", "group": "last-30-days", "lat": 20.72678414561611, "lon": -40.677615859128124, "alt_km": 445.0994305153645, "timestamp": "2025-12-04T13:51:59.225959+00:00", "meta": {"OBJECT_NAME": "STARLINK-35656", "OBJECT_ID": "2025-257M", "EPOCH": "2025-12-04T08:00:01.999872", "MEAN_MOTION": 15.39607311, "ECCENTRICITY": 0.00011621, "INCLINATION": 53.1602, "RA_OF_ASC_NODE": 303.9936, "ARG_OF_PERICENTER": 108.3175, "MEAN_ANOMALY": 2.6054, "EPHEMERIS_TYPE": 0, "CLASSIFICATION_TYPE": "U", "NORAD_CAT_ID": 66391, "ELEMENT_SET_NO": 999, "REV_AT_EPOCH": 524, "BSTAR": -0.0012899509, "MEAN_MOTION_DOT": -0.00051626, "MEAN_MOTION_DDOT": 0}, "tle": {"line1": "1 66391U 25257M   25338.33335648 -.00051626  00000+0 -12900-2 0  9997", "line2": "2 66391  53.1602 303.9936 0001162 108.3175   2.6054 15.39607311  5246"}}, "geometry": {"type": "Point", "coordinates": [-40.677615859128124, 20.72678414561611]}}, {"type": "Feature", "properties": {"norad_id": 66392, "name": "STARLINK-35671", "group": "last-30-days", "lat": 1.7173139242613469, "lon": -55.808977779380044, "alt_km": 446.09903391664557, "timestamp": "2025-12-04T13:51:59.225971+00:00", "meta": {"OBJECT_NAME": "STARLINK-35671", "OBJECT_ID": "2025-257N", "EPOCH": "2025-12-04T08:00:01.999872", "MEAN_MOTION": 15.41334374, "ECCENTRICITY": 0.00012256, "INCLINATION": 53.1602, "RA_OF_ASC_NODE": 304.057, "ARG_OF_PERICENTER": 73.9275, "MEAN_ANOMALY": 11.8731, "EPHEMERIS_TYPE": 0, "CLASSIFICATION_TYPE": "U", "NORAD_CAT_ID": 66392, "ELEMENT_SET_NO": 999, "REV_AT_EPOCH": 514, "BSTAR": -0.056034479, "MEAN_MOTION_DOT": -0.02100618, "MEAN_MOTION_DDOT": 0}, "tle": {"line1": "1 66392U 25257N   25338.33335648 -.02100618  00000+0 -56034-1 0  9991", "line2": "2 66392  53.1602 304.0570 0001225  73.9275  11.8731 15.41334374  5143"}}, "geometry": {"type": "Point", "coordinates": [-55.808977779380044, 1.7173139242613469]}}, {"type": "Feature", "properties": {"norad_id": 66393, "name": "STARLINK-35652", "group": "last-30-days", "lat": 25.40714675732648, "lon": -36.29747574893344, "alt_km": 417.6521340961908, "timestamp": "2025-12-04T13:51:59.225986+00:00", "meta": {"OBJECT_NAME": "STARLINK-35652", "OBJECT_ID": "2025-257P", "EPOCH": "2025-12-04T05:58:58.538496", "MEAN_MOTION": 15.48780318, "ECCENTRICITY": 8.422e-05, "INCLINATION": 53.1593, "RA_OF_ASC_NODE": 304.4102, "ARG_OF_PERICENTER": 333.1937, "MEAN_ANOMALY": 26.9028, "EPHEMERIS_TYPE": 0, "CLASSIFICATION_TYPE": "U", "NORAD_CAT_ID": 66393, "ELEMENT_SET_NO": 999, "REV_AT_EPOCH": 506, "BSTAR": -0.0053734908, "MEAN_MOTION_DOT": -0.00283392, "MEAN_MOTION_DDOT": 0}, "tle": {"line1": "1 66393U 25257P   25338.24928864 -.00283392  00000+0 -53735-2 0  9995", "line2": "2 66393  53.1593 304.4102 0000842 333.1937  26.9028 15.48780318  5065"}}, "geometry": {"type": "Point", "coordinates": [-36.29747574893344, 25.40714675732648]}}, {"type": "Feature", "properties": {"norad_id": 66394, "name": "STARLINK-35672", "group": "last-30-days", "lat": 27.498190035344788, "lon": -34.19456679697177, "alt_km": 418.2676867640721, "timestamp": "2025-12-04T13:51:59.225999+00:00", "meta": {"OBJECT_NAME": "STARLINK-35672", "OBJECT_ID": "2025-257Q", "EPOCH": "2025-12-04T07:31:02.646048", "MEAN_MOTION": 15.48246125, "ECCENTRICITY": 0.00015758, "INCLINATION": 53.1595, "RA_OF_ASC_NODE": 304.098, "ARG_OF_PERICENTER": 56.0118, "MEAN_ANOMALY": 304.104, "EPHEMERIS_TYPE": 0, "CLASSIFICATION_TYPE": "U", "NORAD_CAT_ID": 66394, "ELEMENT_SET_NO": 999, "REV_AT_EPOCH": 507, "BSTAR": -0.0079567556, "MEAN_MOTION_DOT": -0.00405372, "MEAN_MOTION_DDOT": 0}, "tle": {"line1": "1 66394U 25257Q   25338.31322507 -.00405372  00000+0 -79568-2 0  9992", "line2": "2 66394  53.1595 304.0980 0001575  56.0118 304.1040 15.48246125  5073"}}, "geometry": {"type": "Point", "coordinates": [-34.19456679697177, 27.498190035344788]}}, {"type": "Feature", "properties": {"norad_id": 66395, "name": "STARLINK-35681", "group": "last-30-days", "lat": 30.60084382561098, "lon": -30.851508161613758, "alt_km": 414.03641797709315, "timestamp": "2025-12-04T13:51:59.226010+00:00", "meta": {"OBJECT_NAME": "STARLINK-35681", "OBJECT_ID": "2025-257R", "EPOCH": "2025-12-04T05:57:22.401216", "MEAN_MOTION": 15.49376435, "ECCENTRICITY": 0.0001238, "INCLINATION": 53.1595, "RA_OF_ASC_NODE": 304.4037, "ARG_OF_PERICENTER": 87.7747, "MEAN_ANOMALY": 272.3404, "EPHEMERIS_TYPE": 0, "CLASSIFICATION_TYPE": "U", "NORAD_CAT_ID": 66395, "ELEMENT_SET_NO": 999, "REV_AT_EPOCH": 499, "BSTAR": 0.0021385153, "MEAN_MOTION_DOT": 0.00120626, "MEAN_MOTION_DDOT": 0}, "tle": {"line1": "1 66395U 25257R   25338.24817594  .00120626  00000+0  21385-2 0  9998", "line2": "2 66395  53.1595 304.4037 0001238  87.7747 272.3404 15.49376435  4995"}}, "geometry": {"type": "Point", "coordinates": [-30.851508161613758, 30.60084382561098]}}]}